OBJECT_NAME,OBJECT_ID,EPOCH,MEAN_MOTION,ECCENTRICITY,INCLINATION,RA_OF_ASC_NODE,ARG_OF_PERICENTER,MEAN_ANOMALY,EPHEMERIS_TYPE,CLASSIFICATION_TYPE,NORAD_CAT_ID,ELEMENT_SET_NO,REV_AT_EPOCH,BSTAR,MEAN_MOTION_DOT,MEAN_MOTION_DDOT
BEIDOU-2 G8 (C01),2019-027A,2026-06-19T15:16:23.110176,1.00270025,.00101299,1.6653,74.5070,282.0611,284.9181,0,U,44231,999,2610,0,-.254E-5,0
COSMOS 2534 (758),2019-030A,2026-06-19T14:06:28.099872,2.13102291,.00134837,64.3684,192.5358,275.0708,265.7361,0,U,44299,999,5497,0,.58E-6,0
BEIDOU-3 IGSO-2 (C39),2019-035A,2026-06-18T21:16:55.972416,1.00265889,.00396642,55.2463,158.8478,216.5160,330.6306,0,U,44337,999,2568,0,-.97E-6,0
GPS BIII-2  (PRN 18),2019-056A,2026-06-19T14:11:30.425568,2.00569693,.00621077,55.6358,331.0462,197.6187,125.7544,0,U,44506,999,5011,0,-.91E-6,0
BEIDOU-3 M24 (C46),2019-061A,2026-06-18T20:28:45.292800,1.86229057,.00083489,54.3963,182.6715,358.6027,1.4189,0,U,44542,999,4582,0,.56E-6,0
BEIDOU-3 M23 (C45),2019-061B,2026-06-19T06:04:20.444160,1.86227435,.00057136,54.3946,182.6263,337.5161,202.0761,0,U,44543,999,4583,0,.58E-6,0
EUTELSAT 5 WEST B (EGNOS/PRN 121),2019-067A,2026-06-19T09:25:50.814336,1.00269922,.00030561,0.0625,350.0585,98.0803,315.9587,0,U,44624,999,2445,0,-.49E-6,0
BEIDOU-3 M22 (C44),2019-078A,2026-06-19T05:31:23.239776,1.86227099,.00063156,53.9341,299.7561,50.8799,309.1730,0,U,44793,999,4468,0,-.82E-6,0
BEIDOU-3 M21 (C43),2019-078B,2026-06-18T07:06:24.552864,1.86227678,.0004064,53.9076,299.7502,49.2520,310.7784,0,U,44794,999,4467,0,-.76E-6,0
COSMOS 2544 (759),2019-088A,2026-06-18T10:29:30.688800,2.13102753,.00131277,65.5663,73.6893,258.8621,101.0278,0,U,44850,999,5074,0,-.23E-6,0
BEIDOU-3 M19 (C41),2019-090A,2026-06-19T07:51:12.847392,1.86231227,.00178079,56.5606,62.7196,298.1010,230.5750,0,U,44864,999,4427,0,-.63E-6,0
BEIDOU-3 M20 (C42),2019-090B,2026-06-18T16:12:23.971680,1.86231125,.00156151,56.5620,62.7761,312.2190,228.9431,0,U,44865,999,4424,0,-.58E-6,0
BEIDOU-3 G2 (C60),2020-017A,2026-06-19T14:58:04.300032,1.00271738,.000205,2.8701,47.3931,33.6677,131.3840,0,U,45344,999,2328,0,-.147E-5,0
COSMOS 2545 (760),2020-018A,2026-06-16T06:51:36.735840,2.13102431,.0008397,64.3556,312.4510,230.0424,129.8687,0,U,45358,999,4864,0,-.55E-6,0
BEIDOU-3 G3 (C61),2020-040A,2026-06-19T15:30:27.607968,1.00265135,.00023553,2.4543,67.4612,337.0727,206.3951,0,U,45807,999,2209,0,-.359E-5,0
GPS BIII-3  (PRN 23),2020-041A,2026-06-14T13:20:43.219392,2.00558471,.00637165,56.6678,29.0455,204.6721,21.4099,0,U,45854,999,4398,0,-.64E-6,0
GALAXY 30 (WAAS/PRN 135),2020-056C,2026-06-19T12:16:55.659648,1.00272740,.00022362,0.0177,4.8227,83.1357,239.0036,0,U,46114,999,2131,0,.31E-6,0
COSMOS 2547 (705K),2020-075A,2026-06-19T06:58:58.433376,2.13100021,.00093332,64.5997,192.4053,239.7748,120.1782,0,U,46805,999,4395,0,.57E-6,0
GPS BIII-4  (PRN 14),2020-078A,2026-06-19T11:57:23.052672,2.00564899,.00736029,53.9793,210.6846,207.3175,323.5307,0,U,46826,999,4155,0,.26E-6,0
GPS BIII-5  (PRN 11),2021-054A,2026-06-16T22:59:18.041280,2.00568788,.00253425,55.1744,332.4683,228.5515,94.2637,0,U,48859,999,3674,0,-.87E-6,0
QZS-1R (QZSS/PRN 196),2021-096A,2026-06-18T16:08:44.895840,1.00254899,.07546763,37.4655,79.5604,271.8345,291.5952,0,U,49336,999,1702,0,-.287E-5,0
GSAT0223 (GALILEO 27),2021-116A,2026-06-19T09:00:33.961248,1.70475883,.00015499,57.1602,341.6147,185.9794,196.7939,0,U,49809,999,2822,0,-.94E-6,0
GSAT0224 (GALILEO 28),2021-116B,2026-06-17T23:38:32.037792,1.70475877,.0001177,57.1613,341.6514,159.9709,202.1698,0,U,49810,999,2822,0,-.91E-6,0
COSMOS 2557 (706K),2022-075A,2026-06-18T01:08:20.456736,2.13102015,.0010271,64.2982,314.4552,274.5611,85.3098,0,U,52984,999,3073,0,-.57E-6,0
COSMOS 2559 (707K),2022-130A,2026-06-18T08:04:20.621856,2.13101593,.0012585,64.2705,314.5280,178.2040,181.7898,0,U,54031,999,2871,0,-.58E-6,0
COSMOS 2564 (761),2022-161A,2026-06-19T02:50:06.363744,2.13102019,.00122098,64.7419,192.6477,224.8442,135.1033,0,U,54377,999,2767,0,.56E-6,0
GPS BIII-6  (PRN 28),2023-009A,2026-06-18T22:44:02.602176,2.00571367,.00062094,55.1230,148.4494,317.1240,40.4991,0,U,55268,999,2527,0,.54E-6,0
BEIDOU-3 G4 (C62),2023-066A,2026-06-19T15:15:08.229888,1.00273040,.0004426,0.4834,332.1808,179.3704,125.1354,0,U,56564,999,1141,0,-.287E-5,0
NVS-01 (IRNSS-1J),2023-076A,2026-06-19T06:38:48.866208,1.00263943,.0003074,2.1602,244.2432,35.9095,216.4487,0,U,56759,999,1113,0,-.343E-5,0
COSMOS 2569 (703K),2023-114A,2026-06-19T03:07:52.708224,2.13103731,.00106201,65.3032,72.5548,296.9045,63.0260,0,U,57517,999,2230,0,-.29E-6,0
BEIDOU-3 M28 (C50),2023-207A,2026-06-18T08:57:24.639840,1.86229635,.00032493,55.7537,62.2629,347.9613,12.0730,0,U,58654,999,1686,0,-.58E-6,0
